TRANSPORTER-12 OBJECT AZ
1 62656U 25009AZ  26068.71026235  .00016057  00000+0  54903-3 0  9991
2 62656  97.3981 151.9913 0000987  45.3581 314.7740 15.30349724 63792
STARLINK-35689          
1 66494U 25263K   26067.83385995  .00035661  00000+0  12987-2 0  9997
2 66494  42.9976 355.9128 0000268 198.9212 161.1629 15.27592341 18766
